NORAD_CAT_ID,OBJECT_NAME,OBJECT_TYPE,EPOCH,MEAN_MOTION,ECCENTRICITY,INCLINATION,RA_OF_ASC_NODE,ARG_OF_PERICENTER,MEAN_ANOMALY,BSTAR,MEAN_MOTION_DOT,MEAN_MOTION_DDOT,TLE_LINE0,TLE_LINE1,TLE_LINE2,SEMIMAJOR_AXIS,PERIOD,APOGEE,PERIGEE,DECAYED
50187.0,STARLINK-3272,PAYLOAD,2023-11-13 15:16:45,15.08847569,0.0001352,53.218,81.6893,84.6683,275.4463,0.00011484,1.541e-05,0.0,0 STARLINK-3272,1 50187U 21125AH  23317.63664232  .00001541  00000-0  11484-3 0  9992,2 50187  53.2180  81.6893 0001352  84.6683 275.4463 15.08847569108848,6917.857,95.437,540.658,538.787,0.0
50187.0,STARLINK-3272,PAYLOAD,2023-11-14 00:49:04,15.08844749,0.0001069,53.2177,79.9027,79.2875,280.8238,9.6837e-05,1.254e-05,0.0,0 STARLINK-3272,1 50187U 21125AH  23318.03408303  .00001254  00000-0  96837-4 0  9999,2 50187  53.2177  79.9027 0001069  79.2875 280.8238 15.08844749105834,6917.866,95.437,540.47,538.991,0.0
50187.0,STARLINK-3272,PAYLOAD,2023-11-14 11:56:47,15.08832956,0.0001639,53.2186,77.8232,87.6596,272.4583,-3.0421e-05,-7.72e-06,0.0,0 STARLINK-3272,1 50187U 21125AH  23318.49777691 -.00000772  00000-0 -30421-4 0  9991,2 50187  53.2186  77.8232 0001639  87.6596 272.4583 15.08832956105900,6917.902,95.438,540.901,538.633,0.0
50187.0,STARLINK-3272,PAYLOAD,2023-11-14 13:32:11,15.08833626,0.0001359,53.2177,77.5252,81.7271,278.3875,-2.6878e-05,-7.16e-06,0.0,0 STARLINK-3272,1 50187U 21125AH  23318.56401650 -.00000716  00000-0 -26878-4 0  9997,2 50187  53.2177  77.5252 0001359  81.7271 278.3875 15.08833626108988,6917.9,95.438,540.705,538.825,0.0
50187.0,STARLINK-3272,PAYLOAD,2023-11-15 11:47:34,15.08843441,0.0001254,53.2172,73.363,86.3187,273.7948,1.0954e-05,-1.14e-06,0.0,0 STARLINK-3272,1 50187U 21125AH  23319.49137104 -.00000114  00000-0  10954-4 0  9999,2 50187  53.2172  73.3630 0001254  86.3187 273.7948 15.08843441106050,6917.87,95.437,540.602,538.867,0.0
50187.0,STARLINK-3272,PAYLOAD,2023-11-15 13:22:57,15.08845112,0.0001253,53.2173,73.0656,85.3475,274.766,2.9413e-05,1.8e-06,0.0,0 STARLINK-3272,1 50187U 21125AH  23319.55760967  .00000180  00000-0  29413-4 0  9997,2 50187  53.2173  73.0656 0001253  85.3475 274.7660 15.08845112109135,6917.865,95.437,540.597,538.863,0.0
50187.0,STARLINK-3272,PAYLOAD,2023-11-15 18:09:06,15.0884515,0.000134,53.2174,72.1727,95.8344,264.2801,9.5161e-05,1.227e-05,0.0,0 STARLINK-3272,1 50187U 21125AH  23319.75632763  .00001227  00000-0  95161-4 0  9997,2 50187  53.2174  72.1727 0001340  95.8344 264.2801 15.08845150109169,6917.865,95.437,540.657,538.803,0.0
50187.0,STARLINK-3272,PAYLOAD,2023-11-16 00:30:39,15.0883548,0.0001636,53.2182,70.9814,85.0179,275.1,0.00012368,1.681e-05,0.0,0 STARLINK-3272,1 50187U 21125AH  23320.02129470  .00001681  00000-0  12368-3 0  9996,2 50187  53.2182  70.9814 0001636  85.0179 275.1000 15.08835480106137,6917.894,95.438,540.891,538.627,0.0
50187.0,STARLINK-3272,PAYLOAD,2023-11-16 16:24:31,15.08834354,0.0001305,53.2181,68.0081,87.0459,273.0683,8.7465e-05,1.104e-05,0.0,0 STARLINK-3272,1 50187U 21125AH  23320.68369806  .00001104  00000-0  87465-4 0  9998,2 50187  53.2181  68.0081 0001305  87.0459 273.0683 15.08834354109301,6917.898,95.438,540.665,538.86,0.0
50187.0,STARLINK-3272,PAYLOAD,2023-11-17 11:29:08,15.08844079,0.0001321,53.2177,64.4407,89.7691,270.3452,5.7401e-05,6.26e-06,0.0,0 STARLINK-3272,1 50187U 21125AH  23321.47857369  .00000626  00000-0  57401-4 0  9997,2 50187  53.2177  64.4407 0001321  89.7691 270.3452 15.08844079106354,6917.868,95.437,540.647,538.819,0.0
50187.0,STARLINK-3272,PAYLOAD,2023-11-17 13:04:31,15.08844672,0.0001328,53.2178,64.1433,88.9789,271.1355,5.9542e-05,6.6e-06,0.0,0 STARLINK-3272,1 50187U 21125AH  23321.54481298  .00000660  00000-0  59542-4 0  9995,2 50187  53.2178  64.1433 0001328  88.9789 271.1355 15.08844672109439,6917.866,95.437,540.65,538.812,0.0
50187.0,STARLINK-3272,PAYLOAD,2023-11-18 12:55:19,15.08840086,0.0001423,53.2185,59.6854,92.0204,268.0951,6.3891e-05,7.29e-06,0.0,0 STARLINK-3272,1 50187U 21125AH  23322.53841665  .00000729  00000-0  63891-4 0  9991,2 50187  53.2185  59.6854 0001423  92.0204 268.0951 15.08840086106515,6917.88,95.438,540.73,538.761,0.0
50187.0,STARLINK-3272,PAYLOAD,2023-11-19 12:46:05,15.08843666,0.0001466,53.2181,55.2241,94.471,265.6449,7.4281e-05,8.95e-06,0.0,0 STARLINK-3272,1 50187U 21125AH  23323.53201352  .00000895  00000-0  74281-4 0  9994,2 50187  53.2181  55.2241 0001466  94.4710 265.6449 15.08843666109737,6917.869,95.437,540.748,538.72,0.0
50187.0,STARLINK-3272,PAYLOAD,2023-11-19 23:53:48,15.0884017,0.0001436,53.2186,53.1428,94.267,265.8486,5.9547e-05,6.6e-06,0.0,0 STARLINK-3272,1 50187U 21125AH  23323.99569502  .00000660  00000-0  59547-4 0  9996,2 50187  53.2186  53.1428 0001436  94.2670 265.8486 15.08840170106733,6917.88,95.438,540.738,538.751,0.0
50187.0,STARLINK-3272,PAYLOAD,2023-11-20 12:36:52,15.0884383,0.0001435,53.2191,50.7648,93.8605,266.2551,6.4851e-05,7.44e-06,0.0,0 STARLINK-3272,1 50187U 21125AH  23324.52561301  .00000744  00000-0  64851-4 0  9992,2 50187  53.2191  50.7648 0001435  93.8605 266.2551 15.08843830109881,6917.869,95.437,540.726,538.741,0.0
50187.0,STARLINK-3272,PAYLOAD,2023-11-20 14:12:16,15.08844483,0.0001398,53.2193,50.4673,93.4208,266.6945,6.3558e-05,7.24e-06,0.0,0 STARLINK-3272,1 50187U 21125AH  23324.59185256  .00000724  00000-0  63558-4 0  9991,2 50187  53.2193  50.4673 0001398  93.4208 266.6945 15.08844483109898,6917.867,95.437,540.699,538.765,0.0
50187.0,STARLINK-3272,PAYLOAD,2023-11-21 10:52:17,15.0884291,0.0001644,53.2192,46.6017,93.9088,266.2092,4.1229e-05,3.68e-06,0.0,0 STARLINK-3272,1 50187U 21125AH  23325.45297459  .00000368  00000-0  41229-4 0  9991,2 50187  53.2192  46.6017 0001644  93.9088 266.2092 15.08842910106957,6917.871,95.437,540.874,538.599,0.0
50187.0,STARLINK-3272,PAYLOAD,2023-11-21 14:03:02,15.08847699,0.0001508,53.2193,46.004,103.0122,257.1039,4.7562e-05,4.69e-06,0.0,0 STARLINK-3272,1 50187U 21125AH  23325.58545078  .00000469  00000-0  47562-4 0  9996,2 50187  53.2193  46.0040 0001508 103.0122 257.1039 15.08847699110043,6917.857,95.437,540.765,538.679,0.0
50187.0,STARLINK-3272,PAYLOAD,2023-11-22 10:43:03,15.08847538,0.0001634,53.2197,42.1407,80.5172,279.6005,8.7788e-05,1.11e-05,0.0,0 STARLINK-3272,1 50187U 21125AH  23326.44657011  .00001110  00000-0  87788-4 0  9991,2 50187  53.2197  42.1407 0001634  80.5172 279.6005 15.08847538110173,6917.857,95.437,540.853,538.592,0.0
50187.0,STARLINK-3272,PAYLOAD,2023-11-23 12:09:14,15.08842943,0.0001601,53.2193,37.3793,88.5491,271.5684,4.3378e-05,4.02e-06,0.0,0 STARLINK-3272,1 50187U 21125AH  23327.50641400  .00000402  00000-0  43378-4 0  9994,2 50187  53.2193  37.3793 0001601  88.5491 271.5684 15.08842943107264,6917.871,95.437,540.844,538.629,0.0
50187.0,STARLINK-3272,PAYLOAD,2023-11-24 04:03:06,15.08837603,0.0001768,53.2204,34.413,111.5447,248.5734,-0.00010086,-1.893e-05,0.0,0 STARLINK-3272,1 50187U 21125AH  23328.16882253 -.00001893  00000-0 -10086-3 0  9996,2 50187  53.2204  34.4130 0001768 111.5447 248.5734 15.08837603107360,6917.888,95.438,540.976,538.53,0.0
50187.0,STARLINK-3272,PAYLOAD,2023-11-24 12:00:02,15.08834473,0.0001556,53.2193,32.9215,89.1745,270.9426,-9.7047e-05,-1.832e-05,0.0,0 STARLINK-3272,1 50187U 21125AH  23328.50002766 -.00001832  00000-0 -97047-4 0  9993,2 50187  53.2193  32.9215 0001556  89.1745 270.9426 15.08834473110486,6917.897,95.438,540.839,538.686,0.0
50187.0,STARLINK-3272,PAYLOAD,2023-11-25 11:50:49,15.08840195,0.000131,53.2179,28.4659,96.5229,263.5913,0.00014306,1.99e-05,0.0,0 STARLINK-3272,1 50187U 21125AH  23329.49362397  .00001990  00000-0  14306-3 0  9990,2 50187  53.2179  28.4659 0001310  96.5229 263.5913 15.08840195110633,6917.88,95.438,540.651,538.839,0.0
50187.0,STARLINK-3272,PAYLOAD,2023-11-26 10:06:12,15.08854329,0.0001918,53.2185,24.2965,65.1959,294.9233,0.0003769,5.718e-05,0.0,0 STARLINK-3272,1 50187U 21125AH  23330.42098006  .00005718  00000-0  37690-3 0  9991,2 50187  53.2185  24.2965 0001918  65.1959 294.9233 15.08854329110772,6917.837,95.437,541.028,538.375,0.0
50187.0,STARLINK-3272,PAYLOAD,2023-11-27 09:57:01,15.08836275,0.0001589,53.2185,19.8442,74.0436,286.0731,0.00026038,3.858e-05,0.0,0 STARLINK-3272,1 50187U 21125AH  23331.41460587  .00003858  00000-0  26038-3 0  9995,2 50187  53.2185  19.8442 0001589  74.0436 286.0731 15.08836275107855,6917.892,95.438,540.856,538.658,0.0
50187.0,STARLINK-3272,PAYLOAD,2023-11-27 13:07:48,15.08838577,0.0001803,53.2192,19.2405,89.8746,270.2453,0.00026964,4.006e-05,0.0,0 STARLINK-3272,1 50187U 21125AH  23331.54708468  .00004006  00000-0  26964-3 0  9996,2 50187  53.2192  19.2405 0001803  89.8746 270.2453 15.08838577110940,6917.885,95.438,540.997,538.502,0.0
50187.0,STARLINK-3272,PAYLOAD,2023-11-28 09:47:47,15.08872696,0.0001829,53.2184,15.3772,80.3031,279.8168,0.00092869,0.00014536,0.0,0 STARLINK-3272,1 50187U 21125AH  23332.40819317  .00014536  00000-0  92869-3 0  9994,2 50187  53.2184  15.3772 0001829  80.3031 279.8168 15.08872696108008,6917.78,95.435,540.911,538.38,0.0
50187.0,STARLINK-3272,PAYLOAD,2023-11-28 12:58:33,15.08885603,0.0001852,53.2192,14.7805,87.5231,272.5973,0.0011835,0.00018621,0.0,0 STARLINK-3272,1 50187U 21125AH  23332.54066842  .00018621  00000-0  11835-2 0  9998,2 50187  53.2192  14.7805 0001852  87.5231 272.5973 15.08885603111093,6917.741,95.435,540.887,538.325,0.0
50187.0,STARLINK-3272,PAYLOAD,2023-11-29 09:38:33,15.08864942,0.0001771,53.2185,10.9165,102.1439,257.9752,0.0004918,7.553e-05,0.0,0 STARLINK-3272,1 50187U 21125AH  23333.40178218  .00007553  00000-0  49180-3 0  9992,2 50187  53.2185  10.9165 0001771 102.1439 257.9752 15.08864942108154,6917.804,95.436,540.894,538.444,0.0
50187.0,STARLINK-3272,PAYLOAD,2023-11-30 03:07:48,15.0884401,0.0001848,53.2184,7.6453,92.4691,267.6512,0.00087502,0.00013667,0.0,0 STARLINK-3272,1 50187U 21125AH  23334.13042699  .00013667  00000-0  87502-3 0  9999,2 50187  53.2184   7.6453 0001848  92.4691 267.6512 15.08844010108260,6917.868,95.437,541.012,538.455,0.0
